ORBCOMM FM103           
1 40091U 14040F   25272.94726438  .00001490  00000+0  35531-3 0  9997
2 40091  47.0048 243.0076 0001628   7.3846 352.7064 14.58335149579399
ORBCOMM FM114           
1 41179U 15081A   25273.37694941  .00001390  00000+0  33347-3 0  9994
2 41179  47.0021 149.9693 0001532 111.3792 248.7257 14.58374914519820
ORBCOMM FM119           
1 41180U 15081B   25273.36978714  .00001758  00000+0  41268-3 0  9997
2 41180  47.0009  59.3425 0001374 198.9118 161.1716 14.58313035521077
ORBCOMM FM105           
1 41181U 15081C   25273.51006019  .00000791  00000+0  26764-3 0  9995
2 41181  47.0015  73.8846 0001203  72.8009 287.3003 14.45307367515983
ORBCOMM FM110           
1 41182U 15081D   25273.36895965  .00002116  00000+0  48847-3 0  9994
2 41182  47.0001 149.5403 0002708 318.7036  41.3644 14.58401200519698
ORBCOMM FM118           
1 41183U 15081E   25273.26445215  .00001834  00000+0  42847-3 0  9993
2 41183  47.0022 150.2956 0003239 278.5714  81.4805 14.58372927519787
ORBCOMM FM112           
1 41184U 15081F   25273.47566490  .00002337  00000+0  53507-3 0  9990
2 41184  46.9985  57.8979 0001127 137.1853 222.9120 14.58444316521034
ORBCOMM FM113           
1 41185U 15081G   25273.45271142  .00002600  00000+0  59135-3 0  9992
2 41185  47.0004  58.3495 0001074 161.1079 198.9846 14.58431763521013
